GLOBALSTAR M063 [+]     
1 26081U 00008A   23303.57826720 -.00000023  00000+0  87261-3 0  9995
2 26081  51.9945 240.1577 0003896 257.6939 273.7844 11.86146715 86891
GLOBALSTAR M062 [-]     
1 26082U 00008B   23303.55105563 -.00000085  00000+0  91894-4 0  9995
2 26082  51.9862  47.2963 0006097 278.9789  94.1755 12.43419703422524
GLOBALSTAR M060 [-]     
1 26083U 00008C   23303.70432934  .00000079  00000+0  16914-2 0  9998
2 26083  52.0018 282.6146 0003867   1.7232 170.5483 12.17617544 79827
GLOBALSTAR M064 [-]     
1 26084U 00008D   23303.79730685 -.00000045  00000+0  54645-3 0  9990
2 26084  52.0054 345.4320 0001394   3.5775 356.5067 11.88511180 96307
GLOBALSTAR M065 [+]     
1 31571U 07020A   23303.85857654 -.00000045  00000+0  32930-3 0  9994
2 31571  51.9889 238.1698 0010783  70.1928 328.6115 12.61956815758248
GLOBALSTAR M069 [+]     
1 31573U 07020C   23303.91704513 -.00000028  00000+0  42182-3 0  9999
2 31573  51.9941 194.1178 0001008  66.1082  14.0504 12.62259702759374
GLOBALSTAR M072 [+]     
1 31574U 07020D   23303.74930281 -.00000070  00000+0  18670-3 0  9996
2 31574  52.0083 290.3627 0000480  46.1844   8.4222 12.62267655757625
GLOBALSTAR M071 [P]     
1 31576U 07020F   23303.94466736 -.00000021  00000+0  46106-3 0  9990
2 31576  52.0056 199.0219 0000647  51.7831  31.6893 12.62271754420569
